{
  "type": "FeatureCollection",
  "features": [
    {
      "type": "Feature",
      "properties": {
        "place_id": "1",
        "name": "Casablanca-Settat",
        "name_ar": "الدار البيضاء-سطات"
      },
      "geometry": {
        "type": "Point",
        "coordinates": [-7.5898, 33.5731]
      }
    },
    {
      "type": "Feature",
      "properties": {
        "place_id": "2",
        "name": "Rabat-Salé-Kénitra",
        "name_ar": "الرباط-سلا-القنيطرة"
      },
      "geometry": {
        "type": "Point",
        "coordinates": [-6.8498, 33.9716]
      }
    },
    {
      "type": "Feature",
      "properties": {
        "place_id": "3",
        "name": "Marrakech-Safi",
        "name_ar": "مراكش-آسفي"
      },
      "geometry": {
        "type": "Point",
        "coordinates": [-7.9811, 31.6295]
      }
    },
    {
      "type": "Feature",
      "properties": {
        "place_id": "4",
        "name": "Fès-Meknès",
        "name_ar": "فاس-مكناس"
      },
      "geometry": {
        "type": "Point",
        "coordinates": [-5.0003, 34.0181]
      }
    },
    {
      "type": "Feature",
      "properties": {
        "place_id": "5",
        "name": "Tanger-Tétouan-Al Hoceïma",
        "name_ar": "طنجة-تطوان-الحسيمة"
      },
      "geometry": {
        "type": "Point",
        "coordinates": [-5.8087, 35.7595]
      }
    },
    {
      "type": "Feature",
      "properties": {
        "place_id": "6",
        "name": "L'Oriental",
        "name_ar": "الشرق"
      },
      "geometry": {
        "type": "Point",
        "coordinates": [-2.9335, 34.6814]
      }
    },
    {
      "type": "Feature",
      "properties": {
        "place_id": "7",
        "name": "Souss-Massa",
        "name_ar": "سوس-ماسة"
      },
      "geometry": {
        "type": "Point",
        "coordinates": [-9.5981, 30.4278]
      }
    },
    {
      "type": "Feature",
      "properties": {
        "place_id": "8",
        "name": "Béni Mellal-Khénifra",
        "name_ar": "بني ملال-خنيفرة"
      },
      "geometry": {
        "type": "Point",
        "coordinates": [-6.3498, 32.3373]
      }
    },
    {
      "type": "Feature",
      "properties": {
        "place_id": "9",
        "name": "Drâa-Tafilalet",
        "name_ar": "درعة-تافيلالت"
      },
      "geometry": {
        "type": "Point",
        "coordinates": [-4.4333, 31.9333]
      }
    },
    {
      "type": "Feature",
      "properties": {
        "place_id": "10",
        "name": "Guelmim-Oued Noun",
        "name_ar": "كلميم-واد نون"
      },
      "geometry": {
        "type": "Point",
        "coordinates": [-10.0574, 28.9870]
      }
    },
    {
      "type": "Feature",
      "properties": {
        "place_id": "11",
        "name": "Laâyoune-Sakia El Hamra",
        "name_ar": "العيون-الساقية الحمراء"
      },
      "geometry": {
        "type": "Point",
        "coordinates": [-13.2000, 27.1536]
      }
    },
    {
      "type": "Feature",
      "properties": {
        "place_id": "12",
        "name": "Dakhla-Oued Ed-Dahab",
        "name_ar": "الداخلة-وادي الذهب"
      },
      "geometry": {
        "type": "Point",
        "coordinates": [-15.9582, 23.7158]
      }
    }
  ]
}